[Satellite]
VERSION=1.1
NAME=STARLINK-1326
NICKNAME=STARLINK-1326
TLE1=1 45575U 20025AW  20141.58334491 -.00017766  00000-0 -18865-3 0  9990
TLE2=2 45575  52.9984 262.0920 0001007  66.5630 281.7239 15.62748167  1875
STATUS=0
